STARLINK-36153          
1 66934U 25286K   26188.32520567  .00017560  00000+0  52912-3 0  9996
2 66934  53.1587 161.3275 0001653 115.0394 245.0780 15.34429502 33751
STARLINK-36127          
1 66935U 25286L   26189.32950599  .00021096  00000+0  63321-3 0  9995
2 66935  53.1572 156.2244 0000989 187.9432 172.1555 15.34426727 33911
STARLINK-36160          
1 66936U 25286M   26189.33792309  .00013786  00000+0  41818-3 0  9994
2 66936  53.1566 156.2754 0000847  85.9183 274.1917 15.34415957 33901
STARLINK-36165          
1 66937U 25286N   26189.48293932  .00026860  00000+0  80336-3 0  9994
2 66937  53.1578 155.7586 0001807  74.9746 285.1457 15.34394993 33932
STARLINK-36155          
1 66938U 25286P   26188.30206018  .00015905  00000+0  48069-3 0  9999
2 66938  53.1579 161.1844 0001166  82.0683 278.0452 15.34411333 33754
STARLINK-36154          
1 66939U 25286Q   26188.29365685  .00019542  00000+0  58824-3 0  9995
2 66939  53.1569 161.1361 0001403  87.5298 272.5865 15.34387031 33758
STARLINK-36121          
1 66940U 25286R   26189.28331419  .00014527  00000+0  44011-3 0  9996
2 66940  53.1586 156.6476 0001369  72.6115 287.5037 15.34410674 33903
STARLINK-36088          
1 66941U 25286S   26189.31689938  .00018083  00000+0  54488-3 0  9993
2 66941  53.1568 156.1386 0002608  68.4428 291.6852 15.34408774 33916
STARLINK-36100          
1 66942U 25286T   26189.29593390  .00015493  00000+0  46841-3 0  9993
2 66942  53.1596 156.7206 0002066  64.2358 295.8858 15.34420770 33832
STARLINK-36109          
1 66943U 25286U   26189.39884581  .00015412  00000+0  46654-3 0  9993
2 66943  53.1581 155.9400 0001541  74.7478 285.3695 15.34386127 33852
STARLINK-36112          
1 66944U 25286V   26189.32530767  .00014319  00000+0  43401-3 0  9993
2 66944  53.1570 156.1952 0001303 116.9924 243.1211 15.34406827 33910
STARLINK-36110          
1 66945U 25286W   26189.29383143  .00013820  00000+0  41938-3 0  9993
2 66945  53.1583 156.7090 0002912  74.8245 285.3079 15.34400370 33905
STARLINK-36115          
1 66946U 25286X   26189.28542455  .00016279  00000+0  49169-3 0  9991
2 66946  53.1580 156.6560 0002679  66.1466 293.9817 15.34411481 33903
STARLINK-36089          
1 66947U 25286Y   26189.30014697  .00014348  00000+0  43487-3 0  9999
2 66947  53.1583 156.7435 0001070 105.4396 254.6725 15.34408306 33906
STARLINK-36116          
1 66948U 25286Z   26189.31277177  .00015260  00000+0  46169-3 0  9999
2 66948  53.1588 156.8237 0001784  83.3268 276.7938 15.34411956 33891
STARLINK-36096          
1 66949U 25286AA  26189.32110513  .00021182  00000+0  63601-3 0  9991
2 66949  53.1574 156.1675 0001427  91.9460 268.1706 15.34412542 33912
STARLINK-36111          
1 66950U 25286AB  26188.92818305  .00015110  00000+0  45740-3 0  9990
2 66950  53.1569 157.9784 0001233 111.0221 249.0913 15.34402635 33855
STARLINK-35999          
1 66951U 25286AC  26189.29171542  .00021524  00000+0  64550-3 0  9993
2 66951  53.1581 156.6928 0001403  63.9056 296.2091 15.34441312 33908
STARLINK-36122          
1 66952U 25286AD  26188.36300032  .00014213  00000+0  43108-3 0  9992
2 66952  53.1574 160.8552 0001562 104.9926 255.1250 15.34392836 33760
STARLINK-35887          
1 66959U 25288A   26189.36003419  .00023991  00000+0  87817-3 0  9999
2 66959  43.0010  61.8706 0000405 332.9041  27.1789 15.27591996 33749
STARLINK-35879          
1 66960U 25288B   26189.37416579  .00017943  00000+0  65991-3 0  9996
2 66960  43.0056  61.9699 0001590 275.0437  85.0233 15.27583872 33746
STARLINK-35761          
1 66961U 25288C   26189.33947277  .00019120  00000+0  70237-3 0  9995
2 66961  43.0007  61.7107 0000607 313.9852  46.0950 15.27587822 33748
STARLINK-35874          
1 66962U 25288D   26189.33575473  .00019991  00000+0  73398-3 0  9998
2 66962  42.9986  62.5415 0002640 270.8148  89.2401 15.27580497 33732
STARLINK-36133          
1 66963U 25288E   26189.37544905  .00019188  00000+0  70467-3 0  9991
2 66963  43.0065  61.9751 0001747 260.9871  99.0783 15.27594756 33745
STARLINK-36104          
1 66964U 25288F   26189.06521887  .00012335  00000+0  45670-3 0  9997
2 66964  43.0001  63.9506 0003103 243.3878 116.6656 15.27600993 33696
STARLINK-36067          
1 66965U 25288G   26189.35103600  .00011750  00000+0  43568-3 0  9993
2 66965  42.9998  61.8014 0000746 291.5625  68.5147 15.27591744 33745
STARLINK-36139          
1 66966U 25288H   26189.35231640  .00012384  00000+0  45850-3 0  9990
2 66966  43.0036  61.8040 0001572 267.3427  92.7245 15.27600288 33741
STARLINK-36136          
1 66967U 25288J   26189.36259939  .00018923  00000+0  69536-3 0  9995
2 66967  43.0056  61.8793 0001735 263.5747  96.4907 15.27582740 33741
STARLINK-36152          
1 66968U 25288K   26188.99341229  .00008843  00000+0  33040-3 0  9999
2 66968  43.0016  64.2699 0000678 300.7853  59.2932 15.27586834 33683
STARLINK-36149          
1 66969U 25288L   26189.00241021  .00014925  00000+0  55009-3 0  9999
2 66969  42.9996  64.3418 0001587 264.3501  95.7170 15.27620202 33681
