OBJECT_NAME,OBJECT_ID,EPOCH,MEAN_MOTION,ECCENTRICITY,INCLINATION,RA_OF_ASC_NODE,ARG_OF_PERICENTER,MEAN_ANOMALY,EPHEMERIS_TYPE,CLASSIFICATION_TYPE,NORAD_CAT_ID,ELEMENT_SET_NO,REV_AT_EPOCH,BSTAR,MEAN_MOTION_DOT,MEAN_MOTION_DDOT
STARLINK-36153,2025-286K,2026-07-07T07:48:17.769888,15.34429502,.00016536,53.1587,161.3275,115.0394,245.0780,0,U,66934,999,3375,.52912476E-3,.1756E-3,0
STARLINK-36127,2025-286L,2026-07-08T07:54:29.317536,15.34426727,.00009891,53.1572,156.2244,187.9432,172.1555,0,U,66935,999,3391,.63320609E-3,.21096E-3,0
STARLINK-36160,2025-286M,2026-07-08T08:06:36.554976,15.34415957,.00008479,53.1566,156.2754,85.9183,274.1917,0,U,66936,999,3390,.41817569E-3,.13786E-3,0
STARLINK-36165,2025-286N,2026-07-08T11:35:25.957248,15.34394993,.00018073,53.1578,155.7586,74.9746,285.1457,0,U,66937,999,3393,.80335547E-3,.2686E-3,0
STARLINK-36155,2025-286P,2026-07-07T07:14:57.999552,15.34411333,.0001166,53.1579,161.1844,82.0683,278.0452,0,U,66938,999,3375,.48068934E-3,.15905E-3,0
STARLINK-36154,2025-286Q,2026-07-07T07:02:51.951840,15.34387031,.00014032,53.1569,161.1361,87.5298,272.5865,0,U,66939,999,3375,.58824068E-3,.19542E-3,0
STARLINK-36121,2025-286R,2026-07-08T06:47:58.346016,15.34410674,.00013697,53.1586,156.6476,72.6115,287.5037,0,U,66940,999,3390,.4401118E-3,.14527E-3,0
STARLINK-36088,2025-286S,2026-07-08T07:36:20.106432,15.34408774,.00026089,53.1568,156.1386,68.4428,291.6852,0,U,66941,999,3391,.544875E-3,.18083E-3,0
STARLINK-36100,2025-286T,2026-07-08T07:06:08.688960,15.34420770,.00020662,53.1596,156.7206,64.2358,295.8858,0,U,66942,999,3383,.46841231E-3,.15493E-3,0
STARLINK-36109,2025-286U,2026-07-08T09:34:20.277984,15.34386127,.00015417,53.1581,155.9400,74.7478,285.3695,0,U,66943,999,3385,.46653909E-3,.15412E-3,0
STARLINK-36112,2025-286V,2026-07-08T07:48:26.582688,15.34406827,.00013032,53.1570,156.1952,116.9924,243.1211,0,U,66944,999,3391,.43401279E-3,.14319E-3,0
STARLINK-36110,2025-286W,2026-07-08T07:03:07.035552,15.34400370,.00029129,53.1583,156.7090,74.8245,285.3079,0,U,66945,999,3390,.41938454E-3,.1382E-3,0
STARLINK-36115,2025-286X,2026-07-08T06:51:00.681120,15.34411481,.00026799,53.1580,156.6560,66.1466,293.9817,0,U,66946,999,3390,.49169465E-3,.16279E-3,0
STARLINK-36089,2025-286Y,2026-07-08T07:12:12.698208,15.34408306,.00010703,53.1583,156.7435,105.4396,254.6725,0,U,66947,999,3390,.43486517E-3,.14348E-3,0
STARLINK-36116,2025-286Z,2026-07-08T07:30:23.480928,15.34411956,.00017841,53.1588,156.8237,83.3268,276.7938,0,U,66948,999,3389,.4616855E-3,.1526E-3,0
STARLINK-36096,2025-286AA,2026-07-08T07:42:23.483232,15.34412542,.00014279,53.1574,156.1675,91.9460,268.1706,0,U,66949,999,3391,.6360124E-3,.21182E-3,0
STARLINK-36111,2025-286AB,2026-07-07T22:16:35.015520,15.34402635,.00012336,53.1569,157.9784,111.0221,249.0913,0,U,66950,999,3385,.4573977E-3,.1511E-3,0
STARLINK-35999,2025-286AC,2026-07-08T07:00:04.212288,15.34441312,.00014036,53.1581,156.6928,63.9056,296.2091,0,U,66951,999,3390,.64550093E-3,.21524E-3,0
STARLINK-36122,2025-286AD,2026-07-07T08:42:43.227648,15.34392836,.00015626,53.1574,160.8552,104.9926,255.1250,0,U,66952,999,3376,.43107985E-3,.14213E-3,0
STARLINK-35887,2025-288A,2026-07-08T08:38:26.954016,15.27591996,.00004057,43.0010,61.8706,332.9041,27.1789,0,U,66959,999,3374,.87817202E-3,.23991E-3,0
STARLINK-35879,2025-288B,2026-07-08T08:58:47.924256,15.27583872,.00015909,43.0056,61.9699,275.0437,85.0233,0,U,66960,999,3374,.65990758E-3,.17943E-3,0
STARLINK-35761,2025-288C,2026-07-08T08:08:50.447328,15.27587822,.00006076,43.0007,61.7107,313.9852,46.0950,0,U,66961,999,3374,.70236856E-3,.1912E-3,0
STARLINK-35874,2025-288D,2026-07-08T08:03:29.208672,15.27580497,.00026406,42.9986,62.5415,270.8148,89.2401,0,U,66962,999,3373,.73398063E-3,.19991E-3,0
STARLINK-36133,2025-288E,2026-07-08T09:00:38.797920,15.27594756,.00017474,43.0065,61.9751,260.9871,99.0783,0,U,66963,999,3374,.70467054E-3,.19188E-3,0
STARLINK-36104,2025-288F,2026-07-08T01:33:54.910368,15.27600993,.00031038,43.0001,63.9506,243.3878,116.6656,0,U,66964,999,3369,.4566953E-3,.12335E-3,0
STARLINK-36067,2025-288G,2026-07-08T08:25:29.510400,15.27591744,.00007466,42.9998,61.8014,291.5625,68.5147,0,U,66965,999,3374,.43568081E-3,.1175E-3,0
STARLINK-36139,2025-288H,2026-07-08T08:27:20.136960,15.27600288,.00015724,43.0036,61.8040,267.3427,92.7245,0,U,66966,999,3374,.45849576E-3,.12384E-3,0
STARLINK-36136,2025-288J,2026-07-08T08:42:08.587296,15.27582740,.00017357,43.0056,61.8793,263.5747,96.4907,0,U,66967,999,3374,.69536141E-3,.18923E-3,0
STARLINK-36152,2025-288K,2026-07-07T23:50:30.821856,15.27586834,.00006789,43.0016,64.2699,300.7853,59.2932,0,U,66968,999,3368,.330402E-3,.8843E-4,0
STARLINK-36149,2025-288L,2026-07-08T00:03:28.242144,15.27620202,.00015875,42.9996,64.3418,264.3501,95.7170,0,U,66969,999,3368,.55009498E-3,.14925E-3,0
